NANOSATC-BR1            
1 40024U 14033Q   26068.98267556  .00020336  00000+0  74295-3 0  9994
2 40024  98.0845  92.7804 0004644 147.6715 212.4808 15.28136801638811
STARLINK-30078          
1 56841U 23079U   26068.98540847  .00003229  00000+0  12679-3 0  9995
2 56841  43.0071  57.6934 0002701 259.8532 100.2015 15.27586046153494
