[{"OBJECT_NAME":"NANOSATC-BR1","OBJECT_ID":"2014-033Q","EPOCH":"2026-03-09T23:35:03.168384","MEAN_MOTION":15.28136801,"ECCENTRICITY":0.00046435,"INCLINATION":98.0845,"RA_OF_ASC_NODE":92.7804,"ARG_OF_PERICENTER":147.6715,"MEAN_ANOMALY":212.4808,"EPHEMERIS_TYPE":0,"CLASSIFICATION_TYPE":"U","NORAD_CAT_ID":40024,"ELEMENT_SET_NO":999,"REV_AT_EPOCH":63881,"BSTAR":0.00074295057,"MEAN_MOTION_DOT":0.00020336,"MEAN_MOTION_DDOT":0},{"OBJECT_NAME":"STARLINK-30078","OBJECT_ID":"2023-079U","EPOCH":"2026-03-09T23:38:59.292672","MEAN_MOTION":15.27586046,"ECCENTRICITY":0.00027009,"INCLINATION":43.0071,"RA_OF_ASC_NODE":57.6934,"ARG_OF_PERICENTER":259.8532,"MEAN_ANOMALY":100.2015,"EPHEMERIS_TYPE":0,"CLASSIFICATION_TYPE":"U","NORAD_CAT_ID":56841,"ELEMENT_SET_NO":999,"REV_AT_EPOCH":15349,"BSTAR":0.00012679311,"MEAN_MOTION_DOT":3.229e-5,"MEAN_MOTION_DDOT":0}]
